{"type": "FeatureCollection", "features": [ {"type": "Feature", "properties": {"norad_id": 66578, "name": "STARLINK-35743", "group": "last-30-days", "lat": 30.12806167735444, "lon": 155.94589617067467, "alt_km": 411.0092835195446, "timestamp": "2025-12-13T08:49:14.456495+00:00", "meta": {"OBJECT_NAME": "STARLINK-35743", "OBJECT_ID": "2025-268X", "EPOCH": "2025-12-12T20:00:01.999872", "MEAN_MOTION": 15.50617168, "ECCENTRICITY": 0.00012583, "INCLINATION": 43.0003, "RA_OF_ASC_NODE": 120.5523, "ARG_OF_PERICENTER": 268.9167, "MEAN_ANOMALY": 33.1913, "EPHEMERIS_TYPE": 0, "CLASSIFICATION_TYPE": "U", "NORAD_CAT_ID": 66578, "ELEMENT_SET_NO": 999, "REV_AT_EPOCH": 468, "BSTAR": -0.001495689, "MEAN_MOTION_DOT": -0.00087232, "MEAN_MOTION_DDOT": 0}, "tle": {"line1": "1 66578U 25268X   25346.83335648 -.00087232  00000+0 -14957-2 0  9996", "line2": "2 66578  43.0003 120.5523 0001258 268.9167  33.1913 15.50617168  4685"}}, "geometry": {"type": "Point", "coordinates": [155.94589617067467, 30.12806167735444]}}, {"type": "Feature", "properties": {"norad_id": 66579, "name": "STARLINK-35868", "group": "last-30-days", "lat": 31.137934655223603, "lon": 157.8375447476993, "alt_km": 411.0210237088995, "timestamp": "2025-12-13T08:49:14.456507+00:00", "meta": {"OBJECT_NAME": "STARLINK-35868", "OBJECT_ID": "2025-268Y", "EPOCH": "2025-12-12T20:00:01.999872", "MEAN_MOTION": 15.50625583, "ECCENTRICITY": 0.00014128, "INCLINATION": 43.0003, "RA_OF_ASC_NODE": 120.5477, "ARG_OF_PERICENTER": 263.18, "MEAN_ANOMALY": 40.8418, "EPHEMERIS_TYPE": 0, "CLASSIFICATION_TYPE": "U", "NORAD_CAT_ID": 66579, "ELEMENT_SET_NO": 999, "REV_AT_EPOCH": 468, "BSTAR": -0.0017099892, "MEAN_MOTION_DOT": -0.00099558, "MEAN_MOTION_DDOT": 0}, "tle": {"line1": "1 66579U 25268Y   25346.83335648 -.00099558  00000+0 -17100-2 0  9994", "line2": "2 66579  43.0003 120.5477 0001412 263.1800  40.8418 15.50625583  4682"}}, "geometry": {"type": "Point", "coordinates": [157.8375447476993, 31.137934655223603]}}, {"type": "Feature", "properties": {"norad_id": 66580, "name": "STARLINK-35872", "group": "last-30-days", "lat": 32.11912633582567, "lon": 159.76932099881768, "alt_km": 410.74239799609313, "timestamp": "2025-12-13T08:49:14.456518+00:00", "meta": {"OBJECT_NAME": "STARLINK-35872", "OBJECT_ID": "2025-268Z", "EPOCH": "2025-12-12T20:00:01.999872", "MEAN_MOTION": 15.5061357, "ECCENTRICITY": 0.00012846, "INCLINATION": 43.0003, "RA_OF_ASC_NODE": 120.5436, "ARG_OF_PERICENTER": 268.9261, "MEAN_ANOMALY": 37.0194, "EPHEMERIS_TYPE": 0, "CLASSIFICATION_TYPE": "U", "NORAD_CAT_ID": 66580, "ELEMENT_SET_NO": 999, "REV_AT_EPOCH": 468, "BSTAR": -0.0014517363, "MEAN_MOTION_DOT": -0.00084695, "MEAN_MOTION_DDOT": 0}, "tle": {"line1": "1 66580U 25268Z   25346.83335648 -.00084695  00000+0 -14517-2 0  9991", "line2": "2 66580  43.0003 120.5436 0001284 268.9261  37.0194 15.50613570  4682"}}, "geometry": {"type": "Point", "coordinates": [159.76932099881768, 32.11912633582567]}}, {"type": "Feature", "properties": {"norad_id": 66581, "name": "STARLINK-35744", "group": "last-30-days", "lat": 33.07249716086973, "lon": 161.74602066814862, "alt_km": 410.5252169517162, "timestamp": "2025-12-13T08:49:14.456528+00:00", "meta": {"OBJECT_NAME": "STARLINK-35744", "OBJECT_ID": "2025-268AA", "EPOCH": "2025-12-12T20:00:01.999872", "MEAN_MOTION": 15.50618793, "ECCENTRICITY": 0.00014847, "INCLINATION": 43.0002, "RA_OF_ASC_NODE": 120.538, "ARG_OF_PERICENTER": 284.0054, "MEAN_ANOMALY": 23.8544, "EPHEMERIS_TYPE": 0, "CLASSIFICATION_TYPE": "U", "NORAD_CAT_ID": 66581, "ELEMENT_SET_NO": 999, "REV_AT_EPOCH": 463, "BSTAR": -0.0015813482, "MEAN_MOTION_DOT": -0.00092158, "MEAN_MOTION_DDOT": 0}, "tle": {"line1": "1 66581U 25268AA  25346.83335648 -.00092158  00000+0 -15813-2 0  9995", "line2": "2 66581  43.0002 120.5380 0001484 284.0054  23.8544 15.50618793  4630"}}, "geometry": {"type": "Point", "coordinates": [161.74602066814862, 33.07249716086973]}}, {"type": "Feature", "properties": {"norad_id": 66582, "name": "STARLINK-35746", "group": "last-30-days", "lat": 33.99016753909502, "lon": 163.75779825230376, "alt_km": 410.5247652536391, "timestamp": "2025-12-13T08:49:14.456538+00:00", "meta": {"OBJECT_NAME": "STARLINK-35746", "OBJECT_ID": "2025-268AB", "EPOCH": "2025-12-12T20:00:01.999872", "MEAN_MOTION": 15.50648956, "ECCENTRICITY": 0.00014314, "INCLINATION": 43.0003, "RA_OF_ASC_NODE": 120.5335, "ARG_OF_PERICENTER": 276.4618, "MEAN_ANOMALY": 33.2977, "EPHEMERIS_TYPE": 0, "CLASSIFICATION_TYPE": "U", "NORAD_CAT_ID": 66582, "ELEMENT_SET_NO": 999, "REV_AT_EPOCH": 468, "BSTAR": -0.0022924732, "MEAN_MOTION_DOT": -0.00132903, "MEAN_MOTION_DDOT": 0}, "tle": {"line1": "1 66582U 25268AB  25346.83335648 -.00132903  00000+0 -22925-2 0  9991", "line2": "2 66582  43.0003 120.5335 0001431 276.4618  33.2977 15.50648956  4689"}}, "geometry": {"type": "Point", "coordinates": [163.75779825230376, 33.99016753909502]}}, {"type": "Feature", "properties": {"norad_id": 66583, "name": "STARLINK-35941", "group": "last-30-days", "lat": 34.87850657881402, "lon": 165.82263509156294, "alt_km": 410.20175723034936, "timestamp": "2025-12-13T08:49:14.456550+00:00", "meta": {"OBJECT_NAME": "STARLINK-35941", "OBJECT_ID": "2025-268AC", "EPOCH": "2025-12-12T20:00:01.999872", "MEAN_MOTION": 15.50604528, "ECCENTRICITY": 0.00014001, "INCLINATION": 43.0002, "RA_OF_ASC_NODE": 120.5281, "ARG_OF_PERICENTER": 284.6426, "MEAN_ANOMALY": 27.0533, "EPHEMERIS_TYPE": 0, "CLASSIFICATION_TYPE": "U", "NORAD_CAT_ID": 66583, "ELEMENT_SET_NO": 999, "REV_AT_EPOCH": 468, "BSTAR": -0.0011213886, "MEAN_MOTION_DOT": -0.00065638, "MEAN_MOTION_DDOT": 0}, "tle": {"line1": "1 66583U 25268AC  25346.83335648 -.00065638  00000+0 -11214-2 0  9991", "line2": "2 66583  43.0002 120.5281 0001400 284.6426  27.0533 15.50604528  4689"}}, "geometry": {"type": "Point", "coordinates": [165.82263509156294, 34.87850657881402]}}, {"type": "Feature", "properties": {"norad_id": 66584, "name": "STARLINK-35939", "group": "last-30-days", "lat": 35.73638996995606, "lon": 167.94580137377645, "alt_km": 410.26697548871016, "timestamp": "2025-12-13T08:49:14.456561+00:00", "meta": {"OBJECT_NAME": "STARLINK-35939", "OBJECT_ID": "2025-268AD", "EPOCH": "2025-12-12T20:00:01.999872", "MEAN_MOTION": 15.50647252, "ECCENTRICITY": 0.00015924, "INCLINATION": 43.0004, "RA_OF_ASC_NODE": 120.5238, "ARG_OF_PERICENTER": 273.2706, "MEAN_ANOMALY": 40.3003, "EPHEMERIS_TYPE": 0, "CLASSIFICATION_TYPE": "U", "NORAD_CAT_ID": 66584, "ELEMENT_SET_NO": 999, "REV_AT_EPOCH": 468, "BSTAR": -0.0014816013, "MEAN_MOTION_DOT": -0.00086517, "MEAN_MOTION_DDOT": 0}, "tle": {"line1": "1 66584U 25268AD  25346.83335648 -.00086517  00000+0 -14816-2 0  9992", "line2": "2 66584  43.0004 120.5238 0001592 273.2706  40.3003 15.50647252  4682"}}, "geometry": {"type": "Point", "coordinates": [167.94580137377645, 35.73638996995606]}}, {"type": "Feature", "properties": {"norad_id": 66585, "name": "STARLINK-35963", "group": "last-30-days", "lat": 36.53938281254259, "lon": 170.06880742446725, "alt_km": 410.4322774660732, "timestamp": "2025-12-13T08:49:14.456571+00:00", "meta": {"OBJECT_NAME": "STARLINK-35963", "OBJECT_ID": "2025-268AE", "EPOCH": "2025-12-12T20:00:01.999872", "MEAN_MOTION": 15.50626681, "ECCENTRICITY": 0.00017156, "INCLINATION": 43.0004, "RA_OF_ASC_NODE": 120.5189, "ARG_OF_PERICENTER": 265.7118, "MEAN_ANOMALY": 49.8145, "EPHEMERIS_TYPE": 0, "CLASSIFICATION_TYPE": "U", "NORAD_CAT_ID": 66585, "ELEMENT_SET_NO": 999, "REV_AT_EPOCH": 468, "BSTAR": -0.0018067906, "MEAN_MOTION_DOT": -0.00105108, "MEAN_MOTION_DDOT": 0}, "tle": {"line1": "1 66585U 25268AE  25346.83335648 -.00105108  00000+0 -18068-2 0  9994", "line2": "2 66585  43.0004 120.5189 0001715 265.7118  49.8145 15.50626681  4682"}}, "geometry": {"type": "Point", "coordinates": [170.06880742446725, 36.53938281254259]}}, {"type": "Feature", "properties": {"norad_id": 66586, "name": "TJS-21", "group": "last-30-days", "lat": 59.24409756444076, "lon": -139.83110650410063, "alt_km": 35026.69634547227, "timestamp": "2025-12-13T08:49:14.456586+00:00", "meta": {"OBJECT_NAME": "TJS-21", "OBJECT_ID": "2025-269A", "EPOCH": "2025-12-10T17:31:22.184832", "MEAN_MOTION": 2.00567425, "ECCENTRICITY": 0.6805766, "INCLINATION": 63.269, "RA_OF_ASC_NODE": 162.5612, "ARG_OF_PERICENTER": 269.7806, "MEAN_ANOMALY": 18.6565, "EPHEMERIS_TYPE": 0, "CLASSIFICATION_TYPE": "U", "NORAD_CAT_ID": 66586, "ELEMENT_SET_NO": 999, "REV_AT_EPOCH": 39, "BSTAR": -0.044965385, "MEAN_MOTION_DOT": 1.083e-05, "MEAN_MOTION_DDOT": 0}, "tle": {"line1": "1 66586U 25269A   25344.73011788  .00001083  00000+0 -44965-1 0  9999", "line2": "2 66586  63.2690 162.5612 6805766 269.7806  18.6565  2.00567425   392"}}, "geometry": {"type": "Point", "coordinates": [-139.83110650410063, 59.24409756444076]}}, {"type": "Feature", "properties": {"norad_id": 66587, "name": "CZ-3B R/B", "group": "last-30-days", "lat": 23.8773541509864, "lon": -169.77679139727024, "alt_km": 33992.84085679543, "timestamp": "2025-12-13T08:49:14.456603+00:00", "meta": {"OBJECT_NAME": "CZ-3B R/B", "OBJECT_ID": "2025-269B", "EPOCH": "2025-12-10T19:33:40.006368", "MEAN_MOTION": 2.03086829, "ECCENTRICITY": 0.7519519, "INCLINATION": 51.3442, "RA_OF_ASC_NODE": 170.0917, "ARG_OF_PERICENTER": 228.3676, "MEAN_ANOMALY": 37.5722, "EPHEMERIS_TYPE": 0, "CLASSIFICATION_TYPE": "U", "NORAD_CAT_ID": 66587, "ELEMENT_SET_NO": 999, "REV_AT_EPOCH": 41, "BSTAR": 0.0011692039, "MEAN_MOTION_DOT": 0.00057137, "MEAN_MOTION_DDOT": 1.092514e-06}, "tle": {"line1": "1 66587U 25269B   25344.81504637  .00057137  10925-5  11692-2 0  9994", "line2": "2 66587  51.3442 170.0917 7519519 228.3676  37.5722  2.03086829   418"}}, "geometry": {"type": "Point", "coordinates": [-169.77679139727024, 23.8773541509864]}}]}